{
  "type": "FeatureCollection",
  "features": [
    {
      "type": "Feature",
      "properties": {
        "norad_id": 64902,
        "name": "CO3D 2",
        "group": "resource",
        "lat": -11.154740972813727,
        "lon": -121.5450672903334,
        "alt_km": 509.82632377144,
        "timestamp": "2025-12-09T14:52:25.824008+00:00",
        "meta_object_name": "CO3D 2",
        "meta_object_id": "2025-156D",
        "meta_epoch": "2025-12-09T06:08:13.179840",
        "meta_mean_motion": 15.20191585,
        "meta_eccentricity": 9.503e-05,
        "meta_inclination": 97.4341,
        "meta_ra_of_asc_node": 59.5715,
        "meta_arg_of_pericenter": 88.4845,
        "meta_mean_anomaly": 271.6499,
        "meta_ephemeris_type": 0,
        "meta_classification_type": "U",
        "meta_norad_cat_id": 64902,
        "meta_element_set_no": 999,
        "meta_rev_at_epoch": 2067,
        "meta_bstar": 0.00022940208,
        "meta_mean_motion_dot": 4.9e-05,
        "meta_mean_motion_ddot": 0,
        "tle_line1": "1 64902U 25156D   25343.25570810  .00004900  00000+0  22940-3 0  9997",
        "tle_line2": "2 64902  97.4341  59.5715 0000950  88.4845 271.6499 15.20191585 20674"
      },
      "geometry": {
        "type": "Point",
        "coordinates": [
          -121.5450672903334,
          -11.154740972813727
        ]
      }
    },
    {
      "type": "Feature",
      "properties": {
        "norad_id": 64903,
        "name": "CO3D 1",
        "group": "resource",
        "lat": -10.32855757728442,
        "lon": -121.43320313904107,
        "alt_km": 509.5579795183776,
        "timestamp": "2025-12-09T14:52:25.824019+00:00",
        "meta_object_name": "CO3D 1",
        "meta_object_id": "2025-156E",
        "meta_epoch": "2025-12-09T06:08:26.634912",
        "meta_mean_motion": 15.20203755,
        "meta_eccentricity": 9.668e-05,
        "meta_inclination": 97.434,
        "meta_ra_of_asc_node": 59.5717,
        "meta_arg_of_pericenter": 99.6207,
        "meta_mean_anomaly": 260.5137,
        "meta_ephemeris_type": 0,
        "meta_classification_type": "U",
        "meta_norad_cat_id": 64903,
        "meta_element_set_no": 999,
        "meta_rev_at_epoch": 2067,
        "meta_bstar": 0.00039350964,
        "meta_mean_motion_dot": 8.461e-05,
        "meta_mean_motion_ddot": 0,
        "tle_line1": "1 64903U 25156E   25343.25586383  .00008461  00000+0  39351-3 0  9990",
        "tle_line2": "2 64903  97.4340  59.5717 0000966  99.6207 260.5137 15.20203755 20678"
      },
      "geometry": {
        "type": "Point",
        "coordinates": [
          -121.43320313904107,
          -10.32855757728442
        ]
      }
    },
    {
      "type": "Feature",
      "properties": {
        "norad_id": 66514,
        "name": "SENTINEL-6B",
        "group": "resource",
        "lat": 62.078368029459114,
        "lon": -68.12021118819503,
        "alt_km": 1333.8916246166964,
        "timestamp": "2025-12-09T14:52:25.824029+00:00",
        "meta_object_name": "SENTINEL-6B",
        "meta_object_id": "2025-264A",
        "meta_epoch": "2025-12-08T23:22:28.384896",
        "meta_mean_motion": 12.84031992,
        "meta_eccentricity": 0.00210406,
        "meta_inclination": 66.0385,
        "meta_ra_of_asc_node": 170.2707,
        "meta_arg_of_pericenter": 268.23,
        "meta_mean_anomaly": 91.6307,
        "meta_ephemeris_type": 0,
        "meta_classification_type": "U",
        "meta_norad_cat_id": 66514,
        "meta_element_set_no": 999,
        "meta_rev_at_epoch": 280,
        "meta_bstar": 0.000106025,
        "meta_mean_motion_dot": -3.6e-07,
        "meta_mean_motion_ddot": 0,
        "tle_line1": "1 66514U 25264A   25342.97393964 -.00000036  00000+0  10602-3 0  9998",
        "tle_line2": "2 66514  66.0385 170.2707 0021040 268.2300  91.6307 12.84031992  2809"
      },
      "geometry": {
        "type": "Point",
        "coordinates": [
          -68.12021118819503,
          62.078368029459114
        ]
      }
    }
  ]
}